{
  "norad_id": 55605,
  "name": "STARLINK-5725",
  "history": [
    {
      "epoch": "2026-05-06T17:03:16.653024Z",
      "apogee_km": 484.1375439832618,
      "perigee_km": 481.97352385806334,
      "latitude_deg": -6.407243142660767e-06,
      "longitude_deg": -93.89372572284066,
      "height_km": 482.71156296432355,
      "semi_major_axis_km": 6861.192533920663,
      "eccentricity": 0.0001577,
      "inclination_deg": 43.0057,
      "raan_deg": 26.493,
      "arg_perigee_deg": 276.4454,
      "mean_anomaly_deg": 83.6218,
      "mean_motion_rev_day": 15.2757785
    },
    {
      "epoch": "2026-05-07T18:09:46.560096Z",
      "apogee_km": 483.97067885602155,
      "perigee_km": 482.19362309591907,
      "latitude_deg": -2.3875257492742065e-05,
      "longitude_deg": -117.45722241692856,
      "height_km": 482.5875525149857,
      "semi_major_axis_km": 6861.2191509759705,
      "eccentricity": 0.0001295,
      "inclination_deg": 43.0057,
      "raan_deg": 20.5853,
      "arg_perigee_deg": 287.8148,
      "mean_anomaly_deg": 72.2562,
      "mean_motion_rev_day": 15.27568961
    },
    {
      "epoch": "2026-05-08T09:51:20.255040Z",
      "apogee_km": 483.9216600519976,
      "perigee_km": 482.19812739229474,
      "latitude_deg": -1.680848984227631e-05,
      "longitude_deg": 2.8148115171587444,
      "height_km": 482.6227196538345,
      "semi_major_axis_km": 6861.196893722145,
      "eccentricity": 0.0001256,
      "inclination_deg": 43.0059,
      "raan_deg": 16.8922,
      "arg_perigee_deg": 284.4068,
      "mean_anomaly_deg": 75.6644,
      "mean_motion_rev_day": 15.27576394
    },
    {
      "epoch": "2026-05-08T22:24:35.321760Z",
      "apogee_km": 483.8764482423603,
      "perigee_km": 482.23127189793377,
      "latitude_deg": 3.2270620522351046e-05,
      "longitude_deg": 171.03210230644498,
      "height_km": 482.6528611473099,
      "semi_major_axis_km": 6861.190860070147,
      "eccentricity": 0.00011989,
      "inclination_deg": 43.0058,
      "raan_deg": 13.9378,
      "arg_perigee_deg": 282.5096,
      "mean_anomaly_deg": 77.5622,
      "mean_motion_rev_day": 15.27578409
    },
    {
      "epoch": "2026-05-10T16:46:49.055232Z",
      "apogee_km": 483.778919531007,
      "perigee_km": 482.343556859576,
      "latitude_deg": 3.2077063803581164e-05,
      "longitude_deg": -116.2352174077442,
      "height_km": 482.6861098176946,
      "semi_major_axis_km": 6861.198238195291,
      "eccentricity": 0.0001046,
      "inclination_deg": 43.0065,
      "raan_deg": 3.9678,
      "arg_perigee_deg": 282.2479,
      "mean_anomaly_deg": 77.8256,
      "mean_motion_rev_day": 15.27575945
    },
    {
      "epoch": "2026-05-11T16:19:09.943680Z",
      "apogee_km": 483.80364345654925,
      "perigee_km": 482.33260107833485,
      "latitude_deg": 7.197060366211411e-06,
      "longitude_deg": -115.82779746880173,
      "height_km": 482.74860792977233,
      "semi_major_axis_km": 6861.205122267442,
      "eccentricity": 0.0001072,
      "inclination_deg": 43.0062,
      "raan_deg": 358.429,
      "arg_perigee_deg": 277.5494,
      "mean_anomaly_deg": 82.5236,
      "mean_motion_rev_day": 15.27573646
    }
  ]
}